GAOFEN-1                
1 39150U 13018A   25165.76091841  .00000650  00000+0  10044-3 0  9998
2 39150  97.9498 239.3998 0017937  13.9089 346.2611 14.76534993654061
VNREDSAT 1              
1 39160U 13021B   25165.82516619  .00000632  00000+0  12673-3 0  9995
2 39160  97.9490 227.2875 0001401 101.1053 259.0308 14.64936814646525
ARIRANG-5 (KOMPSAT-5)   
1 39227U 13042A   25165.84022890  .00001287  00000+0  96247-4 0  9994
2 39227  97.6201 352.6702 0001622   8.5386 351.5868 15.04503486648680
SKYSAT-A                
1 39418U 13066C   25165.38685786  .00003384  00000+0  21046-3 0  9994
2 39418  97.4331 221.0102 0023952 140.6486 219.6490 15.10051068632922
DUBAISAT-2              
1 39419U 13066D   25165.73802288  .00004335  00000+0  29781-3 0  9993
2 39419  97.4324 162.1287 0011272 206.8173 153.2473 15.06410902631007
GPM-CORE                
1 39574U 14009C   25165.54853944  .00013391  00000+0  28309-3 0  9994
2 39574  64.9769  99.5850 0013525 269.2363  90.7228 15.45338891641022
SENTINEL-1A             
1 39634U 14016A   25165.75620536  .00000061  00000+0  22645-4 0  9999
2 39634  98.1787 173.6143 0001380  89.9741 270.1617 14.59200342596466
KAZEOSAT 1              
1 39731U 14024A   25165.83011192  .00000211  00000+0  77303-4 0  9995
2 39731  98.3595 241.6039 0001340  98.0934 262.0408 14.42056489585665
ALOS-2                  
1 39766U 14029A   25165.82514624  .00001773  00000+0  24410-3 0  9999
2 39766  97.9218 263.2607 0001623  97.0461 263.0936 14.79484359597299
KAZEOSAT 2              
1 40010U 14033A   25165.76728528  .00000558  00000+0  71722-4 0  9990
2 40010  97.5734  19.2412 0010453  93.5334 266.7077 14.84724826594437
HODOYOSHI-4             
1 40011U 14033B   25165.80486199  .00001278  00000+0  14849-3 0  9997
2 40011  97.5525   3.6058 0025765  83.0837 277.3309 14.86763807594208
DEIMOS-2                
1 40013U 14033D   25165.75732433  .00002177  00000+0  21975-3 0  9995
2 40013  97.6334  47.4010 0002456  93.4621 266.6880 14.92077443595770
HODOYOSHI-3             
1 40015U 14033F   25165.82645531  .00001489  00000+0  18301-3 0  9991
2 40015  97.6096 339.7787 0034954 122.8447 237.6141 14.84027534593139
SPOT 7                  
1 40053U 14034A   25165.74671528  .00000472  00000+0  10684-3 0  9997
2 40053  98.1117 231.7648 0001171  87.9115 272.2219 14.60464870583510
