[
  {
    "OBJECT_NAME": "GAOFEN-1",
    "OBJECT_ID": "2013-018A",
    "EPOCH": "2025-06-14T18:15:43.350624",
    "MEAN_MOTION": 14.76534993,
    "ECCENTRICITY": 0.0017937,
    "INCLINATION": 97.9498,
    "RA_OF_ASC_NODE": 239.3998,
    "ARG_OF_PERICENTER": 13.9089,
    "MEAN_ANOMALY": 346.2611,
    "EPHEMERIS_TYPE": 0,
    "CLASSIFICATION_TYPE": "U",
    "NORAD_CAT_ID": 39150,
    "ELEMENT_SET_NO": 999,
    "REV_AT_EPOCH": 65406,
    "BSTAR": 0.00010044,
    "MEAN_MOTION_DOT": 6.5e-06,
    "MEAN_MOTION_DDOT": 0
  },
  {
    "OBJECT_NAME": "VNREDSAT 1",
    "OBJECT_ID": "2013-021B",
    "EPOCH": "2025-06-14T19:48:14.358816",
    "MEAN_MOTION": 14.64936814,
    "ECCENTRICITY": 0.0001401,
    "INCLINATION": 97.949,
    "RA_OF_ASC_NODE": 227.2875,
    "ARG_OF_PERICENTER": 101.1053,
    "MEAN_ANOMALY": 259.0308,
    "EPHEMERIS_TYPE": 0,
    "CLASSIFICATION_TYPE": "U",
    "NORAD_CAT_ID": 39160,
    "ELEMENT_SET_NO": 999,
    "REV_AT_EPOCH": 64652,
    "BSTAR": 0.00012673,
    "MEAN_MOTION_DOT": 6.32e-06,
    "MEAN_MOTION_DDOT": 0
  },
  {
    "OBJECT_NAME": "ARIRANG-5 (KOMPSAT-5)",
    "OBJECT_ID": "2013-042A",
    "EPOCH": "2025-06-14T20:09:55.776960",
    "MEAN_MOTION": 15.04503486,
    "ECCENTRICITY": 0.0001622,
    "INCLINATION": 97.6201,
    "RA_OF_ASC_NODE": 352.6702,
    "ARG_OF_PERICENTER": 8.5386,
    "MEAN_ANOMALY": 351.5868,
    "EPHEMERIS_TYPE": 0,
    "CLASSIFICATION_TYPE": "U",
    "NORAD_CAT_ID": 39227,
    "ELEMENT_SET_NO": 999,
    "REV_AT_EPOCH": 64868,
    "BSTAR": 9.6247e-05,
    "MEAN_MOTION_DOT": 1.287e-05,
    "MEAN_MOTION_DDOT": 0
  },
  {
    "OBJECT_NAME": "SKYSAT-A",
    "OBJECT_ID": "2013-066C",
    "EPOCH": "2025-06-14T09:17:04.519104",
    "MEAN_MOTION": 15.10051068,
    "ECCENTRICITY": 0.0023952,
    "INCLINATION": 97.4331,
    "RA_OF_ASC_NODE": 221.0102,
    "ARG_OF_PERICENTER": 140.6486,
    "MEAN_ANOMALY": 219.649,
    "EPHEMERIS_TYPE": 0,
    "CLASSIFICATION_TYPE": "U",
    "NORAD_CAT_ID": 39418,
    "ELEMENT_SET_NO": 999,
    "REV_AT_EPOCH": 63292,
    "BSTAR": 0.00021046,
    "MEAN_MOTION_DOT": 3.384e-05,
    "MEAN_MOTION_DDOT": 0
  },
  {
    "OBJECT_NAME": "DUBAISAT-2",
    "OBJECT_ID": "2013-066D",
    "EPOCH": "2025-06-14T17:42:45.176832",
    "MEAN_MOTION": 15.06410902,
    "ECCENTRICITY": 0.0011272,
    "INCLINATION": 97.4324,
    "RA_OF_ASC_NODE": 162.1287,
    "ARG_OF_PERICENTER": 206.8173,
    "MEAN_ANOMALY": 153.2473,
    "EPHEMERIS_TYPE": 0,
    "CLASSIFICATION_TYPE": "U",
    "NORAD_CAT_ID": 39419,
    "ELEMENT_SET_NO": 999,
    "REV_AT_EPOCH": 63100,
    "BSTAR": 0.00029781,
    "MEAN_MOTION_DOT": 4.335e-05,
    "MEAN_MOTION_DDOT": 0
  },
  {
    "OBJECT_NAME": "GPM-CORE",
    "OBJECT_ID": "2014-009C",
    "EPOCH": "2025-06-14T13:09:53.807616",
    "MEAN_MOTION": 15.45338891,
    "ECCENTRICITY": 0.0013525,
    "INCLINATION": 64.9769,
    "RA_OF_ASC_NODE": 99.585,
    "ARG_OF_PERICENTER": 269.2363,
    "MEAN_ANOMALY": 90.7228,
    "EPHEMERIS_TYPE": 0,
    "CLASSIFICATION_TYPE": "U",
    "NORAD_CAT_ID": 39574,
    "ELEMENT_SET_NO": 999,
    "REV_AT_EPOCH": 64102,
    "BSTAR": 0.00028309,
    "MEAN_MOTION_DOT": 0.00013391,
    "MEAN_MOTION_DDOT": 0
  },
  {
    "OBJECT_NAME": "SENTINEL-1A",
    "OBJECT_ID": "2014-016A",
    "EPOCH": "2025-06-14T18:08:56.143104",
    "MEAN_MOTION": 14.59200342,
    "ECCENTRICITY": 0.000138,
    "INCLINATION": 98.1787,
    "RA_OF_ASC_NODE": 173.6143,
    "ARG_OF_PERICENTER": 89.9741,
    "MEAN_ANOMALY": 270.1617,
    "EPHEMERIS_TYPE": 0,
    "CLASSIFICATION_TYPE": "U",
    "NORAD_CAT_ID": 39634,
    "ELEMENT_SET_NO": 999,
    "REV_AT_EPOCH": 59646,
    "BSTAR": 2.2645e-05,
    "MEAN_MOTION_DOT": 6.1e-07,
    "MEAN_MOTION_DDOT": 0
  },
  {
    "OBJECT_NAME": "KAZEOSAT 1",
    "OBJECT_ID": "2014-024A",
    "EPOCH": "2025-06-14T19:55:21.669888",
    "MEAN_MOTION": 14.42056489,
    "ECCENTRICITY": 0.000134,
    "INCLINATION": 98.3595,
    "RA_OF_ASC_NODE": 241.6039,
    "ARG_OF_PERICENTER": 98.0934,
    "MEAN_ANOMALY": 262.0408,
    "EPHEMERIS_TYPE": 0,
    "CLASSIFICATION_TYPE": "U",
    "NORAD_CAT_ID": 39731,
    "ELEMENT_SET_NO": 999,
    "REV_AT_EPOCH": 58566,
    "BSTAR": 7.7303e-05,
    "MEAN_MOTION_DOT": 2.11e-06,
    "MEAN_MOTION_DDOT": 0
  },
  {
    "OBJECT_NAME": "ALOS-2",
    "OBJECT_ID": "2014-029A",
    "EPOCH": "2025-06-14T19:48:12.635136",
    "MEAN_MOTION": 14.79484359,
    "ECCENTRICITY": 0.0001623,
    "INCLINATION": 97.9218,
    "RA_OF_ASC_NODE": 263.2607,
    "ARG_OF_PERICENTER": 97.0461,
    "MEAN_ANOMALY": 263.0936,
    "EPHEMERIS_TYPE": 0,
    "CLASSIFICATION_TYPE": "U",
    "NORAD_CAT_ID": 39766,
    "ELEMENT_SET_NO": 999,
    "REV_AT_EPOCH": 59729,
    "BSTAR": 0.0002441,
    "MEAN_MOTION_DOT": 1.773e-05,
    "MEAN_MOTION_DDOT": 0
  },
  {
    "OBJECT_NAME": "KAZEOSAT 2",
    "OBJECT_ID": "2014-033A",
    "EPOCH": "2025-06-14T18:24:53.448192",
    "MEAN_MOTION": 14.84724826,
    "ECCENTRICITY": 0.0010453,
    "INCLINATION": 97.5734,
    "RA_OF_ASC_NODE": 19.2412,
    "ARG_OF_PERICENTER": 93.5334,
    "MEAN_ANOMALY": 266.7077,
    "EPHEMERIS_TYPE": 0,
    "CLASSIFICATION_TYPE": "U",
    "NORAD_CAT_ID": 40010,
    "ELEMENT_SET_NO": 999,
    "REV_AT_EPOCH": 59443,
    "BSTAR": 7.1722e-05,
    "MEAN_MOTION_DOT": 5.58e-06,
    "MEAN_MOTION_DDOT": 0
  },
  {
    "OBJECT_NAME": "HODOYOSHI-4",
    "OBJECT_ID": "2014-033B",
    "EPOCH": "2025-06-14T19:19:00.075936",
    "MEAN_MOTION": 14.86763807,
    "ECCENTRICITY": 0.0025765,
    "INCLINATION": 97.5525,
    "RA_OF_ASC_NODE": 3.6058,
    "ARG_OF_PERICENTER": 83.0837,
    "MEAN_ANOMALY": 277.3309,
    "EPHEMERIS_TYPE": 0,
    "CLASSIFICATION_TYPE": "U",
    "NORAD_CAT_ID": 40011,
    "ELEMENT_SET_NO": 999,
    "REV_AT_EPOCH": 59420,
    "BSTAR": 0.00014849,
    "MEAN_MOTION_DOT": 1.278e-05,
    "MEAN_MOTION_DDOT": 0
  },
  {
    "OBJECT_NAME": "DEIMOS-2",
    "OBJECT_ID": "2014-033D",
    "EPOCH": "2025-06-14T18:10:32.822112",
    "MEAN_MOTION": 14.92077443,
    "ECCENTRICITY": 0.0002456,
    "INCLINATION": 97.6334,
    "RA_OF_ASC_NODE": 47.401,
    "ARG_OF_PERICENTER": 93.4621,
    "MEAN_ANOMALY": 266.688,
    "EPHEMERIS_TYPE": 0,
    "CLASSIFICATION_TYPE": "U",
    "NORAD_CAT_ID": 40013,
    "ELEMENT_SET_NO": 999,
    "REV_AT_EPOCH": 59577,
    "BSTAR": 0.00021975,
    "MEAN_MOTION_DOT": 2.177e-05,
    "MEAN_MOTION_DDOT": 0
  },
  {
    "OBJECT_NAME": "HODOYOSHI-3",
    "OBJECT_ID": "2014-033F",
    "EPOCH": "2025-06-14T19:50:05.738784",
    "MEAN_MOTION": 14.84027534,
    "ECCENTRICITY": 0.0034954,
    "INCLINATION": 97.6096,
    "RA_OF_ASC_NODE": 339.7787,
    "ARG_OF_PERICENTER": 122.8447,
    "MEAN_ANOMALY": 237.6141,
    "EPHEMERIS_TYPE": 0,
    "CLASSIFICATION_TYPE": "U",
    "NORAD_CAT_ID": 40015,
    "ELEMENT_SET_NO": 999,
    "REV_AT_EPOCH": 59313,
    "BSTAR": 0.00018301,
    "MEAN_MOTION_DOT": 1.489e-05,
    "MEAN_MOTION_DDOT": 0
  },
  {
    "OBJECT_NAME": "SPOT 7",
    "OBJECT_ID": "2014-034A",
    "EPOCH": "2025-06-14T17:55:16.200192",
    "MEAN_MOTION": 14.6046487,
    "ECCENTRICITY": 0.0001171,
    "INCLINATION": 98.1117,
    "RA_OF_ASC_NODE": 231.7648,
    "ARG_OF_PERICENTER": 87.9115,
    "MEAN_ANOMALY": 272.2219,
    "EPHEMERIS_TYPE": 0,
    "CLASSIFICATION_TYPE": "U",
    "NORAD_CAT_ID": 40053,
    "ELEMENT_SET_NO": 999,
    "REV_AT_EPOCH": 58351,
    "BSTAR": 0.00010684,
    "MEAN_MOTION_DOT": 4.72e-06,
    "MEAN_MOTION_DDOT": 0
  }
]